STARLINK-31972          
1 59923C 24106B   26115.48451389  .00000349  00000+0  12621-4 0  1159
2 59923  43.0040  68.3524 0001559 265.3617 262.2287 15.27586724    16
STARLINK-31958          
1 59924C 24106C   26115.49493056 -.00013554  00000+0 -49101-3 0  1154
2 59924  43.0023  53.6780 0000996 260.8588 285.9756 15.27580184    17
STARLINK-31959          
1 59925C 24106D   26115.45673611  .00007713  00000+0  27947-3 0  1150
2 59925  43.0007  64.5701 0001370 268.4653 273.4476 15.27564160    15
STARLINK-31957          
1 59926C 24106E   26115.47756944 -.00001412  00000+0 -51151-4 0  1151
2 59926  43.0003  67.9186 0001520 270.4509  57.0303 15.27578357    14
STARLINK-31968          
1 59927C 24106F   26115.47756944 -.00004985  00000+0 -18073-3 0  1155
2 59927  42.9999  68.0203 0001419 272.6077  12.4161 15.27546657    15
STARLINK-31970          
1 59928C 24106G   26115.46645833  .00011024  00000+0  39933-3 0  1157
2 59928  43.0034  68.4027 0001488 269.5600 179.8879 15.27568415    19
STARLINK-31932          
1 59929C 24106H   26115.48034722  .00001449  00000+0  52488-4 0  1150
2 59929  43.0001  65.0673 0001461 274.2203 121.7938 15.27572446    18
STARLINK-31956          
1 59930C 24106J   26115.48451389 -.00004575  00000+0 -16566-3 0  1155
2 59930  43.0028  68.2187 0001313 271.4775 312.7876 15.27592180    13
STARLINK-31960          
1 59931C 24106K   26115.47270833 -.00001159  00000+0 -41964-4 0  1154
2 59931  42.9997  68.0786 0001449 271.8894 332.2413 15.27579963    14
STARLINK-31432          
1 59932C 24106L   26115.47826389  .00005504  00000+0  19935-3 0  1156
2 59932  43.0040  68.4024 0001474 270.4345 215.6904 15.27574840    17
STARLINK-31853          
1 59933C 24106M   26115.47062500  .00009118  00000+0  33058-3 0  1151
2 59933  43.0032  68.3461 0001106 274.5541 211.9516 15.27543120    13
STARLINK-31971          
1 59934C 24106N   26115.48868056  .00120540  00000+0  43600-2 0  1159
2 59934  43.0006  65.0282 0001422 263.2505 157.4581 15.27562617    14
STARLINK-31962          
1 59936C 24106Q   26115.45673611  .00010769  00000+0  39009-3 0  1159
2 59936  43.0028  68.7068 0001479 271.7107  18.1022 15.27570060    10
STARLINK-31879          
1 59937C 24106R   26115.48243056  .00001968  00000+0  71269-4 0  1155
2 59937  43.0012  68.6958 0001467 272.4435 102.2345 15.27577709    10
STARLINK-31876          
1 59938C 24106S   26115.44562500  .00019369  00000+0  70174-3 0  1157
2 59938  43.0019  68.3863 0001043 281.1991 110.1653 15.27560734    14
STARLINK-31955          
1 59939C 24106T   26115.47201389 -.00000687  00000+0 -24663-4 0  1154
2 59939  43.0006  68.1165 0001537 229.2254 356.8797 15.27849494    18
STARLINK-31946          
1 59940C 24106U   26115.43243056  .00034551  00000+0  12544-2 0  1157
2 59940  43.0019  68.9274 0001621 284.3852 196.2294 15.27484629    16
STARLINK-31948          
1 59941C 24106V   26115.49562500 -.00004819  00000+0 -17453-3 0  1153
2 59941  43.0010  64.9302 0001437 267.1772 234.1667 15.27583126    19
STARLINK-31900          
1 59942C 24106W   26115.46715278  .00002903  00000+0  10515-3 0  1155
2 59942  43.0013  68.0271 0001212 272.3823 336.5337 15.27572328    12
STARLINK-31973          
1 59943C 24106X   26115.48798611  .00002342  00000+0  84887-4 0  1151
2 59943  43.0038  68.4343 0001304 277.5905 226.7133 15.27554160    12
STARLINK-31966          
1 59944C 24106Y   26115.48868056 -.00001675  00000+0 -60692-4 0  1151
2 59944  43.0038  68.3742 0001475 272.5992 256.7580 15.27574498    10
STARLINK-11145 [DTC]    
1 59945C 24107A   26115.45812500 -.00145430  00000+0 -11982-2 0  1157
2 59945  53.1569  21.0247 0000976  95.7385  33.9525 15.69777005    13
STARLINK-11113 [DTC]    
1 59947C 24107C   26115.46854167 -.00103720  00000+0 -85474-3 0  1159
2 59947  53.1570  20.2827 0001083  84.6402  76.8050 15.69750033    10
STARLINK-11123 [DTC]    
1 59948C 24107D   26115.44631944 -.00093457  00000+0 -77005-3 0  1150
2 59948  53.1572  20.9681 0001052 100.1776  18.2419 15.69749347    17
STARLINK-11138 [DTC]    
1 59949C 24107E   26115.47062500 -.00119820  00000+0 -98665-3 0  1158
2 59949  53.1579  20.6181 0001052  85.8896 280.8954 15.69778308    19
STARLINK-11130 [DTC]    
1 59950C 24107F   26115.45604167 -.00110360  00000+0 -90938-3 0  1154
2 59950  53.1573  20.8630 0001046  98.8649 102.2622 15.69757080    12
STARLINK-11124 [DTC]    
1 59952C 24107H   26115.43868056 -.00271710  00000+0 -22410-2 0  1159
2 59952  53.1573  20.8360 0001233  65.3261  93.1396 15.69814150    19
STARLINK-11133 [DTC]    
1 59954C 24107K   26115.46020833 -.00124320  00000+0 -10242-2 0  1151
2 59954  53.1577  20.5589 0000996  88.7599 274.6092 15.69767167    17
STARLINK-11144 [DTC]    
1 59955C 24107L   26115.43590278 -.00104360  00000+0 -85973-3 0  1150
2 59955  53.1573  20.6278 0000980  89.6876 163.9793 15.69759950    10
STARLINK-11134 [DTC]    
1 59956C 24107M   26115.44493056 -.00108200  00000+0 -89128-3 0  1151
2 59956  53.1571  20.5208 0001083  88.6648 243.7841 15.69763814    17
STARLINK-11142 [DTC]    
1 59957C 24107N   26115.44493056 -.00100060  00000+0 -82436-3 0  1153
2 59957  53.1571  20.4644 0001015  91.9259 268.2608 15.69755327    14
STARLINK-31995          
1 59958C 24107P   26115.47409722 -.00022796  00000+0 -76845-3 0  1150
2 59958  53.1582 208.1710 0001109  78.0606 154.5251 15.30197090    18
STARLINK-31989          
1 59959C 24107Q   26115.48034722 -.00003068  00000+0 -10334-3 0  1158
2 59959  53.1577 208.0756 0001335  96.1931 205.6495 15.30208891    15
STARLINK-31856          
1 59960C 24107R   26115.43590278 -.00053744  00000+0 -18113-2 0  1156
2 59960  53.1580 208.3147 0001001  90.9120 308.6026 15.30219510    14
STARLINK-31993          
1 59961C 24107S   26115.45465278 -.00028851  00000+0 -97260-3 0  1152
2 59961  53.1585 208.3281 0001266  89.3204   1.1974 15.30198872    11
STARLINK-31980          
1 59962C 24107T   26115.43451389  .00002241  00000+0  75508-4 0  1154
2 59962  53.1589 208.5000 0001054  81.0298 217.6638 15.30205419    11
STARLINK-31991          
1 59963C 24107U   26115.44909722 -.00030454  00000+0 -10266-2 0  1152
2 59963  53.1584 208.3190 0001440  93.5145 343.8381 15.30199911    19
STARLINK-31979          
1 59964C 24107V   26115.45673611 -.00050111  00000+0 -16889-2 0  1158
2 59964  53.1586 208.3623 0001273  93.2231 345.5065 15.30216117    16
STARLINK-31978          
1 60016C 24111A   26115.47895833 -.00044775  00000+0 -15090-2 0  1159
2 60016  53.1586 218.6191 0001354  89.7062 233.5596 15.30215870    12
STARLINK-31987          
1 60017C 24111B   26115.43173611 -.00032637  00000+0 -10998-2 0  1155
2 60017  53.1589 218.7671 0001180  91.8463   6.0522 15.30214698    15
STARLINK-31984          
1 60018C 24111C   26115.48729167 -.00034237  00000+0 -11542-2 0  1158
2 60018  53.1585 218.4272 0001461  91.0297 353.7961 15.30200769    18
STARLINK-31986          
1 60019C 24111D   26115.47131944 -.00029193  00000+0 -98405-3 0  1157
2 60019  53.1585 218.3972 0001036  86.8745 322.2590 15.30201935    18
STARLINK-31883          
1 60020C 24111E   26115.45604167 -.00030500  00000+0 -10280-2 0  1157
2 60020  53.1587 218.6891 0001384  87.4061 127.0131 15.30204885    18
STARLINK-31967          
1 60021C 24111F   26115.44840278  .01543000  00000+0  48637-1 0  1151
2 60021  53.1594 218.1449 0001260  84.9833  19.1320 15.31571753    16
STARLINK-31982          
1 60022C 24111G   26115.47270833  .01669900  00000+0  52986-1 0  1159
2 60022  53.1594 217.9701 0001487  78.8210 193.8176 15.31298056    18
STARLINK-31992          
1 60023C 24111H   26115.49423611 -.00046417  00000+0 -15647-2 0  1153
2 60023  53.1581 218.2390 0001339  78.1157 126.4198 15.30208895    19
STARLINK-31990          
1 60024C 24111J   26115.43590278 -.00032369  00000+0 -10909-2 0  1159
2 60024  53.1577 218.4610 0001368  89.5474 176.7225 15.30209532    10
STARLINK-31939          
1 60026C 24111L   26115.48868056 -.00039515  00000+0 -13321-2 0  1159
2 60026  53.1572 218.0649 0001359  85.8181 186.9791 15.30204532    15
STARLINK-32012          
1 60027C 24111M   26115.45951389 -.00027720  00000+0 -93454-3 0  1150
2 60027  53.1571 218.2301 0001368  76.4676  18.1346 15.30196070    16
STARLINK-32008          
1 60028C 24111N   26115.46506944 -.00047725  00000+0 -16088-2 0  1159
2 60028  53.1573 218.2508 0001237  81.8466  20.1036 15.30208576    14
STARLINK-32006          
1 60029C 24111P   26115.45673611  .00002106  00000+0  70971-4 0  1150
2 60029  53.1580 218.3989 0001288  87.9110 275.7522 15.30189970    10
STARLINK-32011          
1 60030C 24111Q   26115.45881944  .00232160  00000+0  78197-2 0  1153
2 60030  53.1586 218.0585 0001126  91.8917  91.9856 15.30096144    15
STARLINK-31878          
1 60031C 24111R   26115.45465278 -.00025115  00000+0 -84673-3 0  1151
2 60031  53.1592 166.6324 0001282  83.3561 177.0470 15.30193735    18
STARLINK-32017          
1 60032C 24111S   26115.43104167 -.00012009  00000+0 -40460-3 0  1151
2 60032  53.1584 218.5829 0001199  83.1557 115.6053 15.30208115    11
STARLINK-32005          
1 60034C 24111U   26115.49215278 -.00013980  00000+0 -47130-3 0  1155
2 60034  53.1576 218.1633 0001082  71.9783 161.7981 15.30190005    10
STARLINK-31981          
1 60035C 24111V   26115.46159722 -.00048791  00000+0 -16442-2 0  1153
2 60035  53.1587 218.5091 0001214  95.3544 225.2991 15.30219620    19
STARLINK-31985          
1 60036C 24111W   26115.46437500 -.00043014  00000+0 -14498-2 0  1159
2 60036  53.1585 218.4610 0001256  86.4434 266.9717 15.30211738    19
STARLINK-31918          
1 60037C 24111X   26115.46090278 -.00035223  00000+0 -11874-2 0  1155
2 60037  53.1572 218.1562 0001444  83.7397  53.4037 15.30202666    10
STARLINK-11129 [DTC]    
1 60038C 24112A   26115.43729167 -.00074727  00000+0 -61545-3 0  1153
2 60038  53.1569  36.1501 0001052  84.7392 100.2164 15.69750646    19
